[{"OBJECT_NAME":"STARLINK-5640","OBJECT_ID":"2023-014AX","EPOCH":"2026-03-09T12:43:34.446720","MEAN_MOTION":14.98346394,"ECCENTRICITY":0.00033925,"INCLINATION":70.0004,"RA_OF_ASC_NODE":104.9084,"ARG_OF_PERICENTER":275.406,"MEAN_ANOMALY":84.6712,"EPHEMERIS_TYPE":0,"CLASSIFICATION_TYPE":"U","NORAD_CAT_ID":55436,"ELEMENT_SET_NO":999,"REV_AT_EPOCH":17104,"BSTAR":0.0001988912,"MEAN_MOTION_DOT":2.282e-5,"MEAN_MOTION_DDOT":0},{"OBJECT_NAME":"SITRO-AIS 14","OBJECT_ID":"2024-199T","EPOCH":"2026-03-09T22:54:28.226304","MEAN_MOTION":14.97122201,"ECCENTRICITY":0.00071847,"INCLINATION":97.3313,"RA_OF_ASC_NODE":274.5243,"ARG_OF_PERICENTER":48.7211,"MEAN_ANOMALY":311.463,"EPHEMERIS_TYPE":0,"CLASSIFICATION_TYPE":"U","NORAD_CAT_ID":61752,"ELEMENT_SET_NO":999,"REV_AT_EPOCH":12027,"BSTAR":0.00031190269,"MEAN_MOTION_DOT":3.549e-5,"MEAN_MOTION_DDOT":0}]
